{
  "type": "FeatureCollection",
  "features": [
    {
      "type": "Feature",
      "properties": {
        "norad_id": 38709,
        "name": "EXACTVIEW-1 (ADS-1B)",
        "group": "resource",
        "lat": -40.682346943237185,
        "lon": -89.89575503413333,
        "alt_km": 819.6493170508429,
        "timestamp": "2025-12-15T10:55:20.786522+00:00",
        "meta_object_name": "EXACTVIEW-1 (ADS-1B)",
        "meta_object_id": "2012-039C",
        "meta_epoch": "2025-12-14T22:05:24.185184",
        "meta_mean_motion": 14.24908874,
        "meta_eccentricity": 0.00105543,
        "meta_inclination": 98.9637,
        "meta_ra_of_asc_node": 97.3562,
        "meta_arg_of_pericenter": 347.8643,
        "meta_mean_anomaly": 12.2279,
        "meta_ephemeris_type": 0,
        "meta_classification_type": "U",
        "meta_norad_cat_id": 38709,
        "meta_element_set_no": 999,
        "meta_rev_at_epoch": 69646,
        "meta_bstar": 8.2695226e-05,
        "meta_mean_motion_dot": 1.47e-06,
        "meta_mean_motion_ddot": 0,
        "tle_line1": "1 38709U 12039C   25348.92041881  .00000147  00000+0  82695-4 0  9992",
        "tle_line2": "2 38709  98.9637  97.3562 0010554 347.8643  12.2279 14.24908874696464"
      },
      "geometry": {
        "type": "Point",
        "coordinates": [
          -89.89575503413333,
          -40.682346943237185
        ]
      }
    },
    {
      "type": "Feature",
      "properties": {
        "norad_id": 38755,
        "name": "SPOT 6",
        "group": "resource",
        "lat": -38.043520243802725,
        "lon": -132.25466305462064,
        "alt_km": 704.5241901275886,
        "timestamp": "2025-12-15T10:55:20.786532+00:00",
        "meta_object_name": "SPOT 6",
        "meta_object_id": "2012-047A",
        "meta_epoch": "2025-12-14T22:23:58.562880",
        "meta_mean_motion": 14.58606245,
        "meta_eccentricity": 0.00011706,
        "meta_inclination": 98.1571,
        "meta_ra_of_asc_node": 53.6775,
        "meta_arg_of_pericenter": 98.579,
        "meta_mean_anomaly": 261.5542,
        "meta_ephemeris_type": 0,
        "meta_classification_type": "U",
        "meta_norad_cat_id": 38755,
        "meta_element_set_no": 999,
        "meta_rev_at_epoch": 70619,
        "meta_bstar": 0.00013495144,
        "meta_mean_motion_dot": 5.83e-06,
        "meta_mean_motion_ddot": 0,
        "tle_line1": "1 38755U 12047A   25348.93331670  .00000583  00000+0  13495-3 0  9996",
        "tle_line2": "2 38755  98.1571  53.6775 0001170  98.5790 261.5542 14.58606245706190"
      },
      "geometry": {
        "type": "Point",
        "coordinates": [
          -132.25466305462064,
          -38.043520243802725
        ]
      }
    },
    {
      "type": "Feature",
      "properties": {
        "norad_id": 39019,
        "name": "PLEIADES 1B",
        "group": "resource",
        "lat": 62.33163838656827,
        "lon": -102.0152993565106,
        "alt_km": 691.0480513550592,
        "timestamp": "2025-12-15T10:55:20.786542+00:00",
        "meta_object_name": "PLEIADES 1B",
        "meta_object_id": "2012-068A",
        "meta_epoch": "2025-12-14T22:51:55.199808",
        "meta_mean_motion": 14.5855595,
        "meta_eccentricity": 0.00012166,
        "meta_inclination": 98.1791,
        "meta_ra_of_asc_node": 61.5692,
        "meta_arg_of_pericenter": 83.7613,
        "meta_mean_anomaly": 276.3725,
        "meta_ephemeris_type": 0,
        "meta_classification_type": "U",
        "meta_norad_cat_id": 39019,
        "meta_element_set_no": 999,
        "meta_rev_at_epoch": 69399,
        "meta_bstar": 0.00013832079,
        "meta_mean_motion_dot": 5.98e-06,
        "meta_mean_motion_ddot": 0,
        "tle_line1": "1 39019U 12068A   25348.95272222  .00000598  00000+0  13832-3 0  9993",
        "tle_line2": "2 39019  98.1791  61.5692 0001216  83.7613 276.3725 14.58555950693991"
      },
      "geometry": {
        "type": "Point",
        "coordinates": [
          -102.0152993565106,
          62.33163838656827
        ]
      }
    },
    {
      "type": "Feature",
      "properties": {
        "norad_id": 39030,
        "name": "GOKTURK 2",
        "group": "resource",
        "lat": 44.296074200525446,
        "lon": 18.550530897800783,
        "alt_km": 639.8333216075798,
        "timestamp": "2025-12-15T10:55:20.786553+00:00",
        "meta_object_name": "GOKTURK 2",
        "meta_object_id": "2012-073A",
        "meta_epoch": "2025-12-14T21:17:23.526240",
        "meta_mean_motion": 14.75296767,
        "meta_eccentricity": 0.00010572,
        "meta_inclination": 97.6897,
        "meta_ra_of_asc_node": 190.4351,
        "meta_arg_of_pericenter": 106.7606,
        "meta_mean_anomaly": 253.372,
        "meta_ephemeris_type": 0,
        "meta_classification_type": "U",
        "meta_norad_cat_id": 39030,
        "meta_element_set_no": 999,
        "meta_rev_at_epoch": 69733,
        "meta_bstar": 0.00016889743,
        "meta_mean_motion_dot": 1.097e-05,
        "meta_mean_motion_ddot": 0,
        "tle_line1": "1 39030U 12073A   25348.88707785  .00001097  00000+0  16890-3 0  9993",
        "tle_line2": "2 39030  97.6897 190.4351 0001057 106.7606 253.3720 14.75296767697339"
      },
      "geometry": {
        "type": "Point",
        "coordinates": [
          18.550530897800783,
          44.296074200525446
        ]
      }
    },
    {
      "type": "Feature",
      "properties": {
        "norad_id": 39084,
        "name": "LANDSAT 8",
        "group": "resource",
        "lat": -81.43283554772364,
        "lon": 130.82576917158508,
        "alt_km": 710.6082235745407,
        "timestamp": "2025-12-15T10:55:20.786563+00:00",
        "meta_object_name": "LANDSAT 8",
        "meta_object_id": "2013-008A",
        "meta_epoch": "2025-12-14T22:08:21.529824",
        "meta_mean_motion": 14.57115993,
        "meta_eccentricity": 0.00010794,
        "meta_inclination": 98.2071,
        "meta_ra_of_asc_node": 56.9637,
        "meta_arg_of_pericenter": 89.9436,
        "meta_mean_anomaly": 270.1886,
        "meta_ephemeris_type": 0,
        "meta_classification_type": "U",
        "meta_norad_cat_id": 39084,
        "meta_element_set_no": 999,
        "meta_rev_at_epoch": 67106,
        "meta_bstar": 0.00010719011,
        "meta_mean_motion_dot": 4.38e-06,
        "meta_mean_motion_ddot": 0,
        "tle_line1": "1 39084U 13008A   25348.92247141  .00000438  00000+0  10719-3 0  9993",
        "tle_line2": "2 39084  98.2071  56.9637 0001079  89.9436 270.1886 14.57115993671062"
      },
      "geometry": {
        "type": "Point",
        "coordinates": [
          130.82576917158508,
          -81.43283554772364
        ]
      }
    },
    {
      "type": "Feature",
      "properties": {
        "norad_id": 39086,
        "name": "SARAL",
        "group": "resource",
        "lat": 20.062366867822202,
        "lon": 170.2003684744166,
        "alt_km": 782.2708212468297,
        "timestamp": "2025-12-15T10:55:20.786573+00:00",
        "meta_object_name": "SARAL",
        "meta_object_id": "2013-009A",
        "meta_epoch": "2025-12-14T23:05:44.263104",
        "meta_mean_motion": 14.32757753,
        "meta_eccentricity": 0.00029068,
        "meta_inclination": 98.5502,
        "meta_ra_of_asc_node": 172.8638,
        "meta_arg_of_pericenter": 104.5453,
        "meta_mean_anomaly": 255.6053,
        "meta_ephemeris_type": 0,
        "meta_classification_type": "U",
        "meta_norad_cat_id": 39086,
        "meta_element_set_no": 999,
        "meta_rev_at_epoch": 66922,
        "meta_bstar": 6.3128138e-05,
        "meta_mean_motion_dot": 1.28e-06,
        "meta_mean_motion_ddot": 0,
        "tle_line1": "1 39086U 13009A   25348.96231786  .00000128  00000+0  63128-4 0  9997",
        "tle_line2": "2 39086  98.5502 172.8638 0002906 104.5453 255.6053 14.32757753669226"
      },
      "geometry": {
        "type": "Point",
        "coordinates": [
          170.2003684744166,
          20.062366867822202
        ]
      }
    },
    {
      "type": "Feature",
      "properties": {
        "norad_id": 39150,
        "name": "GAOFEN-1",
        "group": "resource",
        "lat": -45.06251407665516,
        "lon": -127.96630804924825,
        "alt_km": 647.2223579727342,
        "timestamp": "2025-12-15T10:55:20.786583+00:00",
        "meta_object_name": "GAOFEN-1",
        "meta_object_id": "2013-018A",
        "meta_epoch": "2025-12-14T22:31:14.995200",
        "meta_mean_motion": 14.76538759,
        "meta_eccentricity": 0.00183172,
        "meta_inclination": 97.9324,
        "meta_ra_of_asc_node": 59.5587,
        "meta_arg_of_pericenter": 136.1541,
        "meta_mean_anomaly": 224.1127,
        "meta_ephemeris_type": 0,
        "meta_classification_type": "U",
        "meta_norad_cat_id": 39150,
        "meta_element_set_no": 999,
        "meta_rev_at_epoch": 68105,
        "meta_bstar": 0.00010924937,
        "meta_mean_motion_dot": 7.13e-06,
        "meta_mean_motion_ddot": 0,
        "tle_line1": "1 39150U 13018A   25348.93836800  .00000713  00000+0  10925-3 0  9990",
        "tle_line2": "2 39150  97.9324  59.5587 0018317 136.1541 224.1127 14.76538759681058"
      },
      "geometry": {
        "type": "Point",
        "coordinates": [
          -127.96630804924825,
          -45.06251407665516
        ]
      }
    }
  ]
}